STARLINK-32912          
1 63088U 25037M   25130.18263783  .00001714  00000+0  48972-4 0  9997
2 63088  70.0028  43.9425 0002782 240.2477 119.8426 15.38309429 13139
STARLINK-32910          
1 63089U 25037N   25130.15012964 -.00002437  00000+0 -60629-4 0  9996
2 63089  70.0012  43.8262 0003094 254.2956 105.7883 15.38317840 13031
STARLINK-32903          
1 63090U 25037P   25130.45882118  .00005351  00000+0  14496-3 0  9993
2 63090  70.0010  43.2991 0002517 275.9677  84.1215 15.38299775 12936
STARLINK-32925          
1 63091U 25037Q   25130.49149666  .00002379  00000+0  66481-4 0  9991
2 63091  70.0011  43.0076 0002880 271.8593  88.2257 15.38326986 13022
STARLINK-32924          
1 63092U 25037R   25130.19057375  .00001113  00000+0  33074-4 0  9991
2 63092  69.9998  43.9682 0003009 255.5851 104.4995 15.38326900 13033
STARLINK-32900          
1 63093U 25037S   25130.50162063  .00013313  00000+0  35439-3 0  9999
2 63093  70.0018  43.0411 0003633 255.2405 104.8372 15.38326440 12947
STARLINK-32927          
1 63094U 25037T   25130.19256507  .00000925  00000+0  28140-4 0  9999
2 63094  70.0027  43.9777 0003345 250.7370 109.3448 15.38319019 12985
STARLINK-32907          
1 63095U 25037U   25130.48554501 -.00001029  00000+0 -23423-4 0  9994
2 63095  70.0008  42.9859 0002871 281.3082  78.7775 15.38333751 13036
STARLINK-32911          
1 63096U 25037V   25130.49348838  .00000332  00000+0  12486-4 0  9991
2 63096  70.0010  43.0156 0002680 273.2270  86.8603 15.38319179 13082
STARLINK-32923          
1 63097U 25037W   25130.18462441  .00000078  00000+0  57673-5 0  9990
2 63097  70.0033  43.9490 0002843 254.2719 105.8147 15.38309267 13033
STARLINK-32913          
1 63098U 25037X   25130.46079206 -.00005487  00000+0 -14110-3 0  9993
2 63098  70.0017  42.8954 0002439 279.6576  80.4328 15.38343747 13098
STARLINK-11629 [DTC]    
1 63104U 25039A   25130.64221784  .00000087  00000+0  33865-5 0  9992
2 63104  43.0042 265.3413 0003917 294.9278  65.1185 15.77853918 11938
STARLINK-11624 [DTC]    
1 63105U 25039B   25130.38413768  .00000227  00000+0  41727-5 0  9991
2 63105  43.0048 266.8446 0001573 267.1697  92.8993 15.77856759 11895
STARLINK-11584 [DTC]    
1 63106U 25039C   25130.44255779 -.00000527  00000+0 -15274-6 0  9999
2 63106  43.0009 266.4146 0002491 279.4260  80.6329 15.77857878 11901
