[
  {
    "OBJECT_NAME": "STARLINK-32912",
    "OBJECT_ID": "2025-037M",
    "EPOCH": "2025-05-10T04:22:59.908512",
    "MEAN_MOTION": 15.38309429,
    "ECCENTRICITY": 0.0002782,
    "INCLINATION": 70.0028,
    "RA_OF_ASC_NODE": 43.9425,
    "ARG_OF_PERICENTER": 240.2477,
    "MEAN_ANOMALY": 119.8426,
    "EPHEMERIS_TYPE": 0,
    "CLASSIFICATION_TYPE": "U",
    "NORAD_CAT_ID": 63088,
    "ELEMENT_SET_NO": 999,
    "REV_AT_EPOCH": 1313,
    "BSTAR": 4.8972e-05,
    "MEAN_MOTION_DOT": 1.714e-05,
    "MEAN_MOTION_DDOT": 0
  },
  {
    "OBJECT_NAME": "STARLINK-32910",
    "OBJECT_ID": "2025-037N",
    "EPOCH": "2025-05-10T03:36:11.200896",
    "MEAN_MOTION": 15.3831784,
    "ECCENTRICITY": 0.0003094,
    "INCLINATION": 70.0012,
    "RA_OF_ASC_NODE": 43.8262,
    "ARG_OF_PERICENTER": 254.2956,
    "MEAN_ANOMALY": 105.7883,
    "EPHEMERIS_TYPE": 0,
    "CLASSIFICATION_TYPE": "U",
    "NORAD_CAT_ID": 63089,
    "ELEMENT_SET_NO": 999,
    "REV_AT_EPOCH": 1303,
    "BSTAR": -6.0629e-05,
    "MEAN_MOTION_DOT": -2.437e-05,
    "MEAN_MOTION_DDOT": 0
  },
  {
    "OBJECT_NAME": "STARLINK-32903",
    "OBJECT_ID": "2025-037P",
    "EPOCH": "2025-05-10T11:00:42.149952",
    "MEAN_MOTION": 15.38299775,
    "ECCENTRICITY": 0.0002517,
    "INCLINATION": 70.001,
    "RA_OF_ASC_NODE": 43.2991,
    "ARG_OF_PERICENTER": 275.9677,
    "MEAN_ANOMALY": 84.1215,
    "EPHEMERIS_TYPE": 0,
    "CLASSIFICATION_TYPE": "U",
    "NORAD_CAT_ID": 63090,
    "ELEMENT_SET_NO": 999,
    "REV_AT_EPOCH": 1293,
    "BSTAR": 0.00014496,
    "MEAN_MOTION_DOT": 5.351e-05,
    "MEAN_MOTION_DDOT": 0
  },
  {
    "OBJECT_NAME": "STARLINK-32925",
    "OBJECT_ID": "2025-037Q",
    "EPOCH": "2025-05-10T11:47:45.311424",
    "MEAN_MOTION": 15.38326986,
    "ECCENTRICITY": 0.000288,
    "INCLINATION": 70.0011,
    "RA_OF_ASC_NODE": 43.0076,
    "ARG_OF_PERICENTER": 271.8593,
    "MEAN_ANOMALY": 88.2257,
    "EPHEMERIS_TYPE": 0,
    "CLASSIFICATION_TYPE": "U",
    "NORAD_CAT_ID": 63091,
    "ELEMENT_SET_NO": 999,
    "REV_AT_EPOCH": 1302,
    "BSTAR": 6.6481e-05,
    "MEAN_MOTION_DOT": 2.379e-05,
    "MEAN_MOTION_DDOT": 0
  },
  {
    "OBJECT_NAME": "STARLINK-32924",
    "OBJECT_ID": "2025-037R",
    "EPOCH": "2025-05-10T04:34:25.572000",
    "MEAN_MOTION": 15.383269,
    "ECCENTRICITY": 0.0003009,
    "INCLINATION": 69.9998,
    "RA_OF_ASC_NODE": 43.9682,
    "ARG_OF_PERICENTER": 255.5851,
    "MEAN_ANOMALY": 104.4995,
    "EPHEMERIS_TYPE": 0,
    "CLASSIFICATION_TYPE": "U",
    "NORAD_CAT_ID": 63092,
    "ELEMENT_SET_NO": 999,
    "REV_AT_EPOCH": 1303,
    "BSTAR": 3.3074e-05,
    "MEAN_MOTION_DOT": 1.113e-05,
    "MEAN_MOTION_DDOT": 0
  },
  {
    "OBJECT_NAME": "STARLINK-32900",
    "OBJECT_ID": "2025-037S",
    "EPOCH": "2025-05-10T12:02:20.022432",
    "MEAN_MOTION": 15.3832644,
    "ECCENTRICITY": 0.0003633,
    "INCLINATION": 70.0018,
    "RA_OF_ASC_NODE": 43.0411,
    "ARG_OF_PERICENTER": 255.2405,
    "MEAN_ANOMALY": 104.8372,
    "EPHEMERIS_TYPE": 0,
    "CLASSIFICATION_TYPE": "U",
    "NORAD_CAT_ID": 63093,
    "ELEMENT_SET_NO": 999,
    "REV_AT_EPOCH": 1294,
    "BSTAR": 0.00035439,
    "MEAN_MOTION_DOT": 0.00013313,
    "MEAN_MOTION_DDOT": 0
  },
  {
    "OBJECT_NAME": "STARLINK-32927",
    "OBJECT_ID": "2025-037T",
    "EPOCH": "2025-05-10T04:37:17.622048",
    "MEAN_MOTION": 15.38319019,
    "ECCENTRICITY": 0.0003345,
    "INCLINATION": 70.0027,
    "RA_OF_ASC_NODE": 43.9777,
    "ARG_OF_PERICENTER": 250.737,
    "MEAN_ANOMALY": 109.3448,
    "EPHEMERIS_TYPE": 0,
    "CLASSIFICATION_TYPE": "U",
    "NORAD_CAT_ID": 63094,
    "ELEMENT_SET_NO": 999,
    "REV_AT_EPOCH": 1298,
    "BSTAR": 2.814e-05,
    "MEAN_MOTION_DOT": 9.25e-06,
    "MEAN_MOTION_DDOT": 0
  },
  {
    "OBJECT_NAME": "STARLINK-32907",
    "OBJECT_ID": "2025-037U",
    "EPOCH": "2025-05-10T11:39:11.088864",
    "MEAN_MOTION": 15.38333751,
    "ECCENTRICITY": 0.0002871,
    "INCLINATION": 70.0008,
    "RA_OF_ASC_NODE": 42.9859,
    "ARG_OF_PERICENTER": 281.3082,
    "MEAN_ANOMALY": 78.7775,
    "EPHEMERIS_TYPE": 0,
    "CLASSIFICATION_TYPE": "U",
    "NORAD_CAT_ID": 63095,
    "ELEMENT_SET_NO": 999,
    "REV_AT_EPOCH": 1303,
    "BSTAR": -2.3423e-05,
    "MEAN_MOTION_DOT": -1.029e-05,
    "MEAN_MOTION_DDOT": 0
  },
  {
    "OBJECT_NAME": "STARLINK-32911",
    "OBJECT_ID": "2025-037V",
    "EPOCH": "2025-05-10T11:50:37.396032",
    "MEAN_MOTION": 15.38319179,
    "ECCENTRICITY": 0.000268,
    "INCLINATION": 70.001,
    "RA_OF_ASC_NODE": 43.0156,
    "ARG_OF_PERICENTER": 273.227,
    "MEAN_ANOMALY": 86.8603,
    "EPHEMERIS_TYPE": 0,
    "CLASSIFICATION_TYPE": "U",
    "NORAD_CAT_ID": 63096,
    "ELEMENT_SET_NO": 999,
    "REV_AT_EPOCH": 1308,
    "BSTAR": 1.2486e-05,
    "MEAN_MOTION_DOT": 3.32e-06,
    "MEAN_MOTION_DDOT": 0
  },
  {
    "OBJECT_NAME": "STARLINK-32923",
    "OBJECT_ID": "2025-037W",
    "EPOCH": "2025-05-10T04:25:51.549024",
    "MEAN_MOTION": 15.38309267,
    "ECCENTRICITY": 0.0002843,
    "INCLINATION": 70.0033,
    "RA_OF_ASC_NODE": 43.949,
    "ARG_OF_PERICENTER": 254.2719,
    "MEAN_ANOMALY": 105.8147,
    "EPHEMERIS_TYPE": 0,
    "CLASSIFICATION_TYPE": "U",
    "NORAD_CAT_ID": 63097,
    "ELEMENT_SET_NO": 999,
    "REV_AT_EPOCH": 1303,
    "BSTAR": 5.7673e-06,
    "MEAN_MOTION_DOT": 7.8e-07,
    "MEAN_MOTION_DDOT": 0
  },
  {
    "OBJECT_NAME": "STARLINK-32913",
    "OBJECT_ID": "2025-037X",
    "EPOCH": "2025-05-10T11:03:32.433984",
    "MEAN_MOTION": 15.38343747,
    "ECCENTRICITY": 0.0002439,
    "INCLINATION": 70.0017,
    "RA_OF_ASC_NODE": 42.8954,
    "ARG_OF_PERICENTER": 279.6576,
    "MEAN_ANOMALY": 80.4328,
    "EPHEMERIS_TYPE": 0,
    "CLASSIFICATION_TYPE": "U",
    "NORAD_CAT_ID": 63098,
    "ELEMENT_SET_NO": 999,
    "REV_AT_EPOCH": 1309,
    "BSTAR": -0.0001411,
    "MEAN_MOTION_DOT": -5.487e-05,
    "MEAN_MOTION_DDOT": 0
  },
  {
    "OBJECT_NAME": "STARLINK-11629 [DTC]",
    "OBJECT_ID": "2025-039A",
    "EPOCH": "2025-05-10T15:24:47.621376",
    "MEAN_MOTION": 15.77853918,
    "ECCENTRICITY": 0.0003917,
    "INCLINATION": 43.0042,
    "RA_OF_ASC_NODE": 265.3413,
    "ARG_OF_PERICENTER": 294.9278,
    "MEAN_ANOMALY": 65.1185,
    "EPHEMERIS_TYPE": 0,
    "CLASSIFICATION_TYPE": "U",
    "NORAD_CAT_ID": 63104,
    "ELEMENT_SET_NO": 999,
    "REV_AT_EPOCH": 1193,
    "BSTAR": 3.3865e-06,
    "MEAN_MOTION_DOT": 8.7e-07,
    "MEAN_MOTION_DDOT": 0
  },
  {
    "OBJECT_NAME": "STARLINK-11624 [DTC]",
    "OBJECT_ID": "2025-039B",
    "EPOCH": "2025-05-10T09:13:09.495552",
    "MEAN_MOTION": 15.77856759,
    "ECCENTRICITY": 0.0001573,
    "INCLINATION": 43.0048,
    "RA_OF_ASC_NODE": 266.8446,
    "ARG_OF_PERICENTER": 267.1697,
    "MEAN_ANOMALY": 92.8993,
    "EPHEMERIS_TYPE": 0,
    "CLASSIFICATION_TYPE": "U",
    "NORAD_CAT_ID": 63105,
    "ELEMENT_SET_NO": 999,
    "REV_AT_EPOCH": 1189,
    "BSTAR": 4.1727e-06,
    "MEAN_MOTION_DOT": 2.27e-06,
    "MEAN_MOTION_DDOT": 0
  },
  {
    "OBJECT_NAME": "STARLINK-11584 [DTC]",
    "OBJECT_ID": "2025-039C",
    "EPOCH": "2025-05-10T10:37:16.993056",
    "MEAN_MOTION": 15.77857878,
    "ECCENTRICITY": 0.0002491,
    "INCLINATION": 43.0009,
    "RA_OF_ASC_NODE": 266.4146,
    "ARG_OF_PERICENTER": 279.426,
    "MEAN_ANOMALY": 80.6329,
    "EPHEMERIS_TYPE": 0,
    "CLASSIFICATION_TYPE": "U",
    "NORAD_CAT_ID": 63106,
    "ELEMENT_SET_NO": 999,
    "REV_AT_EPOCH": 1190,
    "BSTAR": -1.5274e-07,
    "MEAN_MOTION_DOT": -5.27e-06,
    "MEAN_MOTION_DDOT": 0
  }
]